STARLINK-30589          
1 58103U 23161G   26068.46817257 -.00001730  00000+0 -46309-4 0  9990
2 58103  53.1598 166.6492 0001235 109.2061 250.9073 15.30192530134388
KUIPER-00208            
1 67775U 26030M   26068.67231509  .00043852  00000+0  13883-2 0  9994
2 67775  51.8846 219.6993 0015525  57.3146 302.9333 15.32208734  5080
